TRANSPORTER-17 OBJECT A 
1 69869U 26156A   26201.98610202 -.00000126  00000+0 -55721-4 0  9991
2 69869  98.9944 101.9657 0011869 183.8853 176.2221 13.99859055  1919
TRANSPORTER-17 OBJECT B 
1 69870U 26156B   26202.25003472 -.00014836  00000+0 -14731-2 0  9996
2 69870  97.7511 102.4695 0008491  99.7712  19.6819 14.91670625  3262
TRANSPORTER-17 OBJECT C 
1 69871U 26156C   26202.25003472 -.00015196  00000+0 -15085-2 0  9990
2 69871  97.7547 102.4795 0007589 102.8011  18.1704 14.91690936  2069
TRANSPORTER-17 OBJECT D 
1 69872U 26156D   26201.90084695  .00000557  00000+0  62363-4 0  9994
2 69872  97.7517 102.1092 0005100  72.7801 287.3975 14.90712011  2027
TRANSPORTER-17 OBJECT E 
1 69873U 26156E   26202.25003472 -.00017681  00000+0 -17609-2 0  9997
2 69873  97.7548 102.4774 0007427  99.9414  16.3456 14.91595831  2997
TRANSPORTER-17 OBJECT F 
1 69874U 26156F   26201.89957150  .00001350  00000+0  14266-3 0  9999
2 69874  97.7520 102.1119 0004712  86.1818 273.9939 14.90860207  2020
TRANSPORTER-17 OBJECT G 
1 69875U 26156G   26201.96623501  .00000868  00000+0  93574-4 0  9991
2 69875  97.7508 102.1763 0005155  83.2792 276.9013 14.90907147  2035
TRANSPORTER-17 OBJECT H 
1 69876U 26156H   26201.89002483  .00000179  00000+0  23188-4 0  9993
2 69876  97.7339 102.1172 0008542 107.3438 252.8716 14.91897376  2025
TRANSPORTER-17 OBJECT J 
1 69877U 26156J   26201.96236578  .00002022  00000+0  20828-3 0  9992
2 69877  97.7548 102.1879 0006610  95.3669 264.8304 14.91342425  2035
TRANSPORTER-17 OBJECT K 
1 69878U 26156K   26201.95881675  .00000529  00000+0  58071-4 0  9998
2 69878  97.7512 102.1853 0008332 101.2949 258.9207 14.91714363  2030
TRANSPORTER-17 OBJECT L 
1 69879U 26156L   26201.89378992  .00000862  00000+0  91624-4 0  9996
2 69879  97.7550 102.1243 0007150  98.9073 261.2955 14.91492502  2027
TRANSPORTER-17 OBJECT M 
1 69880U 26156M   26201.96517860  .00001121  00000+0  11892-3 0  9992
2 69880  97.7453 102.1691 0006370  78.2907 281.9026 14.91024718  2037
TRANSPORTER-17 OBJECT N 
1 69881U 26156N   26201.96517387  .00000542  00000+0  60355-4 0  9992
2 69881  97.7489 102.1749 0005769  83.8380 276.3495 14.91020168  2032
TRANSPORTER-17 OBJECT P 
1 69882U 26156P   26201.96501813  .00002159  00000+0  22366-3 0  9995
2 69882  97.7566 102.1866 0005086  98.3133 261.8662 14.91053780  2039
TRANSPORTER-17 OBJECT Q 
1 69883U 26156Q   26202.25003472 -.00016067  00000+0 -16107-2 0  9997
2 69883  97.7537 102.4691 0006524  94.9025   7.7070 14.91319482  1300
TRANSPORTER-17 OBJECT R 
1 69884U 26156R   26202.25003472 -.00017104  00000+0 -16921-2 0  9995
2 69884  97.7509 102.4747 0008636 103.6215  24.9968 14.91847647  2843
TRANSPORTER-17 OBJECT S 
1 69885U 26156S   26201.96130970  .00000468  00000+0  52367-4 0  9996
2 69885  97.7520 102.1841 0007401  94.8312 265.3752 14.91440321  2038
TRANSPORTER-17 OBJECT T 
1 69886U 26156T   26202.25003472 -.00018505  00000+0 -18315-2 0  9992
2 69886  97.7546 102.4815 0008368 106.0478  22.8520 14.91849211  3045
TRANSPORTER-17 OBJECT U 
1 69887U 26156U   26201.95801077  .00000176  00000+0  22967-4 0  9999
2 69887  97.7548 102.1939 0008100 106.5159 253.6950 14.91798542  2036
TRANSPORTER-17 OBJECT V 
1 69888U 26156V   26201.89533096  .00001133  00000+0  11927-3 0  9993
2 69888  97.7562 102.1243 0006454  96.7327 263.4626 14.91325590  1866
TRANSPORTER-17 OBJECT W 
1 69889U 26156W   26202.25003472 -.00014177  00000+0 -14152-2 0  9991
2 69889  97.7544 102.4729 0007117  96.7343  12.1003 14.91457081  3078
TRANSPORTER-17 OBJECT X 
1 69890U 26156X   26202.25003472 -.00018727  00000+0 -18512-2 0  9992
2 69890  97.7539 102.4812 0008630 106.2126  25.2325 14.91900216  2696
TRANSPORTER-17 OBJECT Y 
1 69891U 26156Y   26201.96056109  .00000500  00000+0  55418-4 0  9991
2 69891  97.7512 102.1834 0007754  96.5027 263.7075 14.91522880  2032
TRANSPORTER-17 OBJECT Z 
1 69892U 26156Z   26202.25003472 -.00015703  00000+0 -15490-2 0  9997
2 69892  97.7528 102.4798 0008918 105.8361  27.4115 14.91942088  3329
TRANSPORTER-17 OBJECT AA
1 69893U 26156AA  26202.25003472 -.00014038  00000+0 -14028-2 0  9994
2 69893  97.7536 102.4705 0007039  95.2058  11.3722 14.91411221  3152
TRANSPORTER-17 OBJECT AB
1 69894U 26156AB  26201.96044193  .00000511  00000+0  56496-4 0  9993
2 69894  97.7551 102.1916 0007261  99.7859 260.4180 14.91536073  2030
TRANSPORTER-17 OBJECT AC
1 69895U 26156AC  26201.96030312  .00000566  00000+0  61950-4 0  9993
2 69895  97.7516 102.1843 0007888  97.2092 263.0024 14.91552095  2036
TRANSPORTER-17 OBJECT AD
1 69896U 26156AD  26202.25003472 -.00017350  00000+0 -17089-2 0  9997
2 69896  97.7528 102.4815 0009218 106.7935  30.5167 14.92022710  1304
TRANSPORTER-17 OBJECT AE
1 69897U 26156AE  26201.83360484  .00000867  00000+0  93914-4 0  9996
2 69897  97.7570 102.0511 0003637  99.9260 260.2369 14.90728471  2014
