OBJECT_NAME,OBJECT_ID,EPOCH,MEAN_MOTION,ECCENTRICITY,INCLINATION,RA_OF_ASC_NODE,ARG_OF_PERICENTER,MEAN_ANOMALY,EPHEMERIS_TYPE,CLASSIFICATION_TYPE,NORAD_CAT_ID,ELEMENT_SET_NO,REV_AT_EPOCH,BSTAR,MEAN_MOTION_DOT,MEAN_MOTION_DDOT
TRANSPORTER-17 OBJECT A,2026-156A,2026-07-20T23:39:59.214528,13.99859055,.00118692,98.9944,101.9657,183.8853,176.2221,0,U,69869,999,191,-.55720776E-4,-.126E-5,0
TRANSPORTER-17 OBJECT B,2026-156B,2026-07-21T06:00:02.999808,14.91670625,.00084917,97.7511,102.4695,99.7712,19.6819,0,U,69870,999,326,-.14730875E-2,-.14836E-3,0
TRANSPORTER-17 OBJECT C,2026-156C,2026-07-21T06:00:02.999808,14.91690936,.00075898,97.7547,102.4795,102.8011,18.1704,0,U,69871,999,206,-.15085213E-2,-.15196E-3,0
TRANSPORTER-17 OBJECT D,2026-156D,2026-07-20T21:37:13.176480,14.90712011,.00051006,97.7517,102.1092,72.7801,287.3975,0,U,69872,999,202,.6236251E-4,.557E-5,0
TRANSPORTER-17 OBJECT E,2026-156E,2026-07-21T06:00:02.999808,14.91595831,.00074275,97.7548,102.4774,99.9414,16.3456,0,U,69873,999,299,-.17609189E-2,-.17681E-3,0
TRANSPORTER-17 OBJECT F,2026-156F,2026-07-20T21:35:22.977600,14.90860207,.00047121,97.7520,102.1119,86.1818,273.9939,0,U,69874,999,202,.14265838E-3,.135E-4,0
TRANSPORTER-17 OBJECT G,2026-156G,2026-07-20T23:11:22.704864,14.90907147,.00051555,97.7508,102.1763,83.2792,276.9013,0,U,69875,999,203,.93573725E-4,.868E-5,0
TRANSPORTER-17 OBJECT H,2026-156H,2026-07-20T21:21:38.145312,14.91897376,.00085428,97.7339,102.1172,107.3438,252.8716,0,U,69876,999,202,.23187738E-4,.179E-5,0
TRANSPORTER-17 OBJECT J,2026-156J,2026-07-20T23:05:48.403392,14.91342425,.00066109,97.7548,102.1879,95.3669,264.8304,0,U,69877,999,203,.20828235E-3,.2022E-4,0
TRANSPORTER-17 OBJECT K,2026-156K,2026-07-20T23:00:41.767200,14.91714363,.00083326,97.7512,102.1853,101.2949,258.9207,0,U,69878,999,203,.5807113E-4,.529E-5,0
TRANSPORTER-17 OBJECT L,2026-156L,2026-07-20T21:27:03.449088,14.91492502,.00071508,97.7550,102.1243,98.9073,261.2955,0,U,69879,999,202,.91623746E-4,.862E-5,0
TRANSPORTER-17 OBJECT M,2026-156M,2026-07-20T23:09:51.431040,14.91024718,.00063708,97.7453,102.1691,78.2907,281.9026,0,U,69880,999,203,.11892057E-3,.1121E-4,0
TRANSPORTER-17 OBJECT N,2026-156N,2026-07-20T23:09:51.022368,14.91020168,.00057692,97.7489,102.1749,83.8380,276.3495,0,U,69881,999,203,.60355387E-4,.542E-5,0
TRANSPORTER-17 OBJECT P,2026-156P,2026-07-20T23:09:37.566432,14.91053780,.00050865,97.7566,102.1866,98.3133,261.8662,0,U,69882,999,203,.22365975E-3,.2159E-4,0
TRANSPORTER-17 OBJECT Q,2026-156Q,2026-07-21T06:00:02.999808,14.91319482,.0006524,97.7537,102.4691,94.9025,7.7070,0,U,69883,999,130,-.16106818E-2,-.16067E-3,0
TRANSPORTER-17 OBJECT R,2026-156R,2026-07-21T06:00:02.999808,14.91847647,.00086363,97.7509,102.4747,103.6215,24.9968,0,U,69884,999,284,-.16921065E-2,-.17104E-3,0
TRANSPORTER-17 OBJECT S,2026-156S,2026-07-20T23:04:17.158080,14.91440321,.00074019,97.7520,102.1841,94.8312,265.3752,0,U,69885,999,203,.52367312E-4,.468E-5,0
TRANSPORTER-17 OBJECT T,2026-156T,2026-07-21T06:00:02.999808,14.91849211,.00083686,97.7546,102.4815,106.0478,22.8520,0,U,69886,999,304,-.18315305E-2,-.18505E-3,0
TRANSPORTER-17 OBJECT U,2026-156U,2026-07-20T22:59:32.130528,14.91798542,.00081006,97.7548,102.1939,106.5159,253.6950,0,U,69887,999,203,.22966855E-4,.176E-5,0
TRANSPORTER-17 OBJECT V,2026-156V,2026-07-20T21:29:16.594944,14.91325590,.00064545,97.7562,102.1243,96.7327,263.4626,0,U,69888,999,186,.11927028E-3,.1133E-4,0
TRANSPORTER-17 OBJECT W,2026-156W,2026-07-21T06:00:02.999808,14.91457081,.00071174,97.7544,102.4729,96.7343,12.1003,0,U,69889,999,307,-.14151787E-2,-.14177E-3,0
TRANSPORTER-17 OBJECT X,2026-156X,2026-07-21T06:00:02.999808,14.91900216,.00086309,97.7539,102.4812,106.2126,25.2325,0,U,69890,999,269,-.18511787E-2,-.18727E-3,0
TRANSPORTER-17 OBJECT Y,2026-156Y,2026-07-20T23:03:12.478176,14.91522880,.00077549,97.7512,102.1834,96.5027,263.7075,0,U,69891,999,203,.55418145E-4,.5E-5,0
TRANSPORTER-17 OBJECT Z,2026-156Z,2026-07-21T06:00:02.999808,14.91942088,.00089185,97.7528,102.4798,105.8361,27.4115,0,U,69892,999,332,-.15490416E-2,-.15703E-3,0
TRANSPORTER-17 OBJECT AA,2026-156AA,2026-07-21T06:00:02.999808,14.91411221,.00070394,97.7536,102.4705,95.2058,11.3722,0,U,69893,999,315,-.14028115E-2,-.14038E-3,0
TRANSPORTER-17 OBJECT AB,2026-156AB,2026-07-20T23:03:02.182752,14.91536073,.00072615,97.7551,102.1916,99.7859,260.4180,0,U,69894,999,203,.56496172E-4,.511E-5,0
TRANSPORTER-17 OBJECT AC,2026-156AC,2026-07-20T23:02:50.189568,14.91552095,.00078889,97.7516,102.1843,97.2092,263.0024,0,U,69895,999,203,.61950192E-4,.566E-5,0
TRANSPORTER-17 OBJECT AD,2026-156AD,2026-07-21T06:00:02.999808,14.92022710,.0009218,97.7528,102.4815,106.7935,30.5167,0,U,69896,999,130,-.17089108E-2,-.1735E-3,0
TRANSPORTER-17 OBJECT AE,2026-156AE,2026-07-20T20:00:23.458176,14.90728471,.00036371,97.7570,102.0511,99.9260,260.2369,0,U,69897,999,201,.93913991E-4,.867E-5,0
